[{"OBJECT_NAME":"STARLINK-4545","OBJECT_ID":"2022-097AK","EPOCH":"2026-03-09T08:22:33.340800","MEAN_MOTION":15.08837092,"ECCENTRICITY":0.00012651,"INCLINATION":53.2167,"RA_OF_ASC_NODE":115.65,"ARG_OF_PERICENTER":97.2687,"MEAN_ANOMALY":262.8449,"EPHEMERIS_TYPE":0,"CLASSIFICATION_TYPE":"U","NORAD_CAT_ID":53421,"ELEMENT_SET_NO":999,"REV_AT_EPOCH":19857,"BSTAR":3.489098e-6,"MEAN_MOTION_DOT":-2.32e-6,"MEAN_MOTION_DDOT":0},{"OBJECT_NAME":"CZ-6A DEB","OBJECT_ID":"2024-140ACM","EPOCH":"2026-03-09T13:49:36.534720","MEAN_MOTION":14.84353282,"ECCENTRICITY":0.0123748,"INCLINATION":89.0471,"RA_OF_ASC_NODE":283.7315,"ARG_OF_PERICENTER":156.1501,"MEAN_ANOMALY":204.5529,"EPHEMERIS_TYPE":0,"CLASSIFICATION_TYPE":"U","NORAD_CAT_ID":61821,"ELEMENT_SET_NO":999,"REV_AT_EPOCH":7938,"BSTAR":0.0013387,"MEAN_MOTION_DOT":0.00012918,"MEAN_MOTION_DDOT":0}]
